CTC2_L_00641007-03
1 35453U 22141JI  26037.47799769  .00000000  00000+0  00000-0 0  9995
2 35453  60.0000 180.0000 0000000   0.0000 144.0000  3.95927811    12
CTC2_L_00641007-04
1 35454U 22563QR  26037.47799769  .00000000  00000+0  00000-0 0  9994
2 35454  60.0000 180.0000 0000000   0.0000 180.0000  3.95927811    13
CTC2_L_00641007-05
1 35455U 23588GW  26037.47799769  .00000000  00000+0  00000-0 0  9993
2 35455  60.0000 180.0000 0000000   0.0000 216.0000  3.95927811    14
CTC2_L_00641007-06
1 35456U 23418KG  26037.47799769  .00000000  00000+0  00000-0 0  9996
2 35456  60.0000 180.0000 0000000   0.0000 252.0000  3.95927811    15
CTC2_L_00641007-07
1 35457U 23592UN  26037.47799769  .00000000  00000+0  00000-0 0  9990
2 35457  60.0000 180.0000 0000000   0.0000 288.0000  3.95927811    15
CTC2_L_00641007-08
1 35458U 22774SM  26037.47799769  .00000000  00000+0  00000-0 0  9992
2 35458  60.0000 180.0000 0000000   0.0000 324.0000  3.95927811    17
CTC2_L_00641007-09
1 35459U 23702YK  26037.47799769  .00000000  00000+0  00000-0 0  9995
2 35459  60.0000 180.0000 0000000   0.0000   0.0000  3.95927811    19
CTC2_L_00641007-10
1 35460U 24826FY  26037.47799769  .00000000  00000+0  00000-0 0  9995
2 35460  60.0000 180.0000 0000000   0.0000  36.0000  3.95927811    10
CTC2_L_00641008-01
1 35461U 23844VI  26037.47799769  .00000000  00000+0  00000-0 0  9995
2 35461  60.0000 210.0000 0000000   0.0000  84.0000  3.95927811    18
CTC2_L_00641008-02
1 35462U 23493FZ  26037.47799769  .00000000  00000+0  00000-0 0  9996
2 35462  60.0000 210.0000 0000000   0.0000 120.0000  3.95927811    10
CTC2_L_00641008-03
1 35463U 24094IQ  26037.47799769  .00000000  00000+0  00000-0 0  9995
2 35463  60.0000 210.0000 0000000   0.0000 156.0000  3.95927811    10
CTC2_L_00641008-04
1 35464U 22477UU  26037.47799769  .00000000  00000+0  00000-0 0  9999
2 35464  60.0000 210.0000 0000000   0.0000 192.0000  3.95927811    11
CTC2_L_00641008-05
1 35465U 24190UM  26037.47799769  .00000000  00000+0  00000-0 0  9994
2 35465  60.0000 210.0000 0000000   0.0000 228.0000  3.95927811    12
CTC2_L_00641008-06
1 35466U 22413F   26037.47799769  .00000000  00000+0  00000-0 0  9991
2 35466  60.0000 210.0000 0000000   0.0000 264.0000  3.95927811    13
CTC2_L_00641008-07
1 35467U 26081DB  26037.47799769  .00000000  00000+0  00000-0 0  9997
2 35467  60.0000 210.0000 0000000   0.0000 300.0000  3.95927811    15
CTC2_L_00641008-08
1 35468U 25200WO  26037.47799769  .00000000  00000+0  00000-0 0  9990
2 35468  60.0000 210.0000 0000000   0.0000 336.0000  3.95927811    15
CTC2_L_00641008-09
1 35469U 23276RW  26037.47799769  .00000000  00000+0  00000-0 0  9992
2 35469  60.0000 210.0000 0000000   0.0000  12.0000  3.95927811    17
CTC2_L_00641008-10
1 35470U 23192FZ  26037.47799769  .00000000  00000+0  00000-0 0  9991
2 35470  60.0000 210.0000 0000000   0.0000  48.0000  3.95927811    18
CTC2_L_00641009-01
1 35471U 26336IO  26037.47799769  .00000000  00000+0  00000-0 0  9995
2 35471  60.0000 240.0000 0000000   0.0000  96.0000  3.95927811    15
CTC2_L_00641009-02
1 35472U 25469GV  26037.47799769  .00000000  00000+0  00000-0 0  9992
2 35472  60.0000 240.0000 0000000   0.0000 132.0000  3.95927811    17
CTC2_L_00641009-03
1 35473U 22023KH  26037.47799769  .00000000  00000+0  00000-0 0  9996
2 35473  60.0000 240.0000 0000000   0.0000 168.0000  3.95927811    17
CTC2_L_00641009-04
1 35474U 23446NB  26037.47799769  .00000000  00000+0  00000-0 0  9997
2 35474  60.0000 240.0000 0000000   0.0000 204.0000  3.95927811    19
CTC2_L_00641009-05
1 35475U 26672UC  26037.47799769  .00000000  00000+0  00000-0 0  9992
2 35475  60.0000 240.0000 0000000   0.0000 240.0000  3.95927811    10
CTC2_L_00641009-06
1 35476U 22270SW  26037.47799769  .00000000  00000+0  00000-0 0  9993
2 35476  60.0000 240.0000 0000000   0.0000 276.0000  3.95927811    10
CTC2_L_00641009-07
1 35477U 22574ND  26037.47799769  .00000000  00000+0  00000-0 0  9991
2 35477  60.0000 240.0000 0000000   0.0000 312.0000  3.95927811    12
CTC2_L_00641009-08
1 35478U 22888AC  26037.47799769  .00000000  00000+0  00000-0 0  9990
2 35478  60.0000 240.0000 0000000   0.0000 348.0000  3.95927811    12
CTC2_L_00641009-09
1 35479U 26904YP  26037.47799769  .00000000  00000+0  00000-0 0  9994
2 35479  60.0000 240.0000 0000000   0.0000  24.0000  3.95927811    14
CTC2_L_00641009-10
1 35480U 25860PS  26037.47799769  .00000000  00000+0  00000-0 0  9996
2 35480  60.0000 240.0000 0000000   0.0000  60.0000  3.95927811    16
CTC2_L_00641010-01
1 35481U 22031RZ  26037.47799769  .00000000  00000+0  00000-0 0  9994
2 35481  60.0000 270.0000 0000000   0.0000 108.0000  3.95927811    13
CTC2_L_00641010-02
1 35482U 23390BM  26037.47799769  .00000000  00000+0  00000-0 0  9994
2 35482  60.0000 270.0000 0000000   0.0000 144.0000  3.95927811    14
CTC2_L_00641010-03
1 35483U 26802J   26037.47799769  .00000000  00000+0  00000-0 0  9996
2 35483  60.0000 270.0000 0000000   0.0000 180.0000  3.95927811    15
CTC2_L_00641010-04
1 35484U 26319RW  26037.47799769  .00000000  00000+0  00000-0 0  9990
2 35484  60.0000 270.0000 0000000   0.0000 216.0000  3.95927811    16
CTC2_L_00641010-05
1 35485U 26212QH  26037.47799769  .00000000  00000+0  00000-0 0  9993
2 35485  60.0000 270.0000 0000000   0.0000 252.0000  3.95927811    17
CTC2_L_00641010-06
1 35486U 23153JC  26037.47799769  .00000000  00000+0  00000-0 0  9995
2 35486  60.0000 270.0000 0000000   0.0000 288.0000  3.95927811    17
CTC2_L_00641010-07
1 35487U 26555TO  26037.47799769  .00000000  00000+0  00000-0 0  9995
2 35487  60.0000 270.0000 0000000   0.0000 324.0000  3.95927811    19
CTC2_L_00641010-08
1 35488U 24382FL  26037.47799769  .00000000  00000+0  00000-0 0  9992
2 35488  60.0000 270.0000 0000000   0.0000   0.0000  3.95927811    11
CTC2_L_00641010-09
1 35489U 24826ND  26037.47799769  .00000000  00000+0  00000-0 0  9996
2 35489  60.0000 270.0000 0000000   0.0000  36.0000  3.95927811    11
CTC2_L_00641010-10
1 35490U 24471ZA  26037.47799769  .00000000  00000+0  00000-0 0  9994
2 35490  60.0000 270.0000 0000000   0.0000  72.0000  3.95927811    13
CTC2_L_00641011-01
1 35491U 25728EG  26037.47799769  .00000000  00000+0  00000-0 0  9991
2 35491  60.0000 300.0000 0000000   0.0000 120.0000  3.95927811    12
CTC2_L_00641011-02
1 35492U 23143JB  26037.47799769  .00000000  00000+0  00000-0 0  9991
2 35492  60.0000 300.0000 0000000   0.0000 156.0000  3.95927811    12
CTC2_L_00641011-03
1 35493U 24865TD  26037.47799769  .00000000  00000+0  00000-0 0  9994
2 35493  60.0000 300.0000 0000000   0.0000 192.0000  3.95927811    13
CTC2_L_00641011-04
1 35494U 26618HP  26037.47799769  .00000000  00000+0  00000-0 0  9993
2 35494  60.0000 300.0000 0000000   0.0000 228.0000  3.95927811    14
CTC2_L_00641011-05
1 35495U 23822VA  26037.47799769  .00000000  00000+0  00000-0 0  9998
2 35495  60.0000 300.0000 0000000   0.0000 264.0000  3.95927811    15
CTC2_L_00641011-06
1 35496U 26838ZY  26037.47799769  .00000000  00000+0  00000-0 0  9999
2 35496  60.0000 300.0000 0000000   0.0000 300.0000  3.95927811    17
CTC2_L_00641011-07
1 35497U 24619UQ  26037.47799769  .00000000  00000+0  00000-0 0  9995
2 35497  60.0000 300.0000 0000000   0.0000 336.0000  3.95927811    17
CTC2_L_00641011-08
1 35498U 26926VH  26037.47799769  .00000000  00000+0  00000-0 0  9999
2 35498  60.0000 300.0000 0000000   0.0000  12.0000  3.95927811    19
CTC2_L_00641011-09
1 35499U 22155KP  26037.47799769  .00000000  00000+0  00000-0 0  9990
2 35499  60.0000 300.0000 0000000   0.0000  48.0000  3.95927811    19
CTC2_L_00641011-10
1 35500U 22451FJ  26037.47799769  .00000000  00000+0  00000-0 0  9992
2 35500  60.0000 300.0000 0000000   0.0000  84.0000  3.95927811    12
CTC2_L_00641012-01
1 35501U 23303AE  26037.47799769  .00000000  00000+0  00000-0 0  9990
2 35501  60.0000 330.0000 0000000   0.0000 132.0000  3.95927811    10
CTC2_L_00641012-02
1 35502U 24194JW  26037.47799769  .00000000  00000+0  00000-0 0  9990
2 35502  60.0000 330.0000 0000000   0.0000 168.0000  3.95927811    10
CTC2_L_00641012-03
1 35503U 24690TA  26037.47799769  .00000000  00000+0  00000-0 0  9992
2 35503  60.0000 330.0000 0000000   0.0000 204.0000  3.95927811    12
CTC2_L_00641012-04
1 35504U 24353XF  26037.47799769  .00000000  00000+0  00000-0 0  9999
2 35504  60.0000 330.0000 0000000   0.0000 240.0000  3.95927811    13
CTC2_L_00641012-05
1 35505U 26648WV  26037.47799769  .00000000  00000+0  00000-0 0  9999
2 35505  60.0000 330.0000 0000000   0.0000 276.0000  3.95927811    13
CTC2_L_00641012-06
1 35506U 25310LC  26037.47799769  .00000000  00000+0  00000-0 0  9995
2 35506  60.0000 330.0000 0000000   0.0000 312.0000  3.95927811    15
CTC2_L_00641012-07
1 35507U 24730HL  26037.47799769  .00000000  00000+0  00000-0 0  9991
2 35507  60.0000 330.0000 0000000   0.0000 348.0000  3.95927811    15
CTC2_L_00641012-08
1 35508U 24092ZG  26037.47799769  .00000000  00000+0  00000-0 0  9993
2 35508  60.0000 330.0000 0000000   0.0000  24.0000  3.95927811    17
CTC2_L_00641012-09
1 35509U 24699HA  26037.47799769  .00000000  00000+0  00000-0 0  9997
2 35509  60.0000 330.0000 0000000   0.0000  60.0000  3.95927811    18
CTC2_L_00641012-10
1 35510U 23822DF  26037.47799769  .00000000  00000+0  00000-0 0  9996
2 35510  60.0000 330.0000 0000000   0.0000  96.0000  3.95927811    19
